{
  "type": "FeatureCollection",
  "features": [
    {
      "type": "Feature",
      "properties": {
        "norad_id": 44709,
        "name": "BEIDOU-3 IGSO-3 (C40)",
        "group": "beidou",
        "lat": -6.8318818966516375,
        "lon": -81.96121542019462,
        "alt_km": 35973.48696251956,
        "timestamp": "2025-12-18T04:58:34.841778+00:00",
        "meta_object_name": "BEIDOU-3 IGSO-3 (C40)",
        "meta_object_id": "2019-073A",
        "meta_epoch": "2025-11-20T07:11:22.740000",
        "meta_mean_motion": 1.00250097,
        "meta_eccentricity": 0.0044538,
        "meta_inclination": 55.163,
        "meta_ra_of_asc_node": 283.159,
        "meta_arg_of_pericenter": 191.5856,
        "meta_mean_anomaly": 168.2409,
        "meta_ephemeris_type": 0,
        "meta_classification_type": "U",
        "meta_norad_cat_id": 44709,
        "meta_element_set_no": 999,
        "meta_rev_at_epoch": 2236,
        "meta_bstar": 0,
        "meta_mean_motion_dot": -2.06e-06,
        "meta_mean_motion_ddot": 0,
        "tle_line1": "1 44709U 19073A   25324.29956875 -.00000206  00000+0  00000+0 0  9998",
        "tle_line2": "2 44709  55.1630 283.1590 0044538 191.5856 168.2409  1.00250097 22360"
      },
      "geometry": {
        "type": "Point",
        "coordinates": [
          -81.96121542019462,
          -6.8318818966516375
        ]
      }
    },
    {
      "type": "Feature",
      "properties": {
        "norad_id": 44793,
        "name": "BEIDOU-3 M22 (C44)",
        "group": "beidou",
        "lat": 40.23487780820932,
        "lon": -16.076250421992754,
        "alt_km": 21508.378913037905,
        "timestamp": "2025-12-18T04:58:34.841794+00:00",
        "meta_object_name": "BEIDOU-3 M22 (C44)",
        "meta_object_id": "2019-078A",
        "meta_epoch": "2025-12-17T14:11:57.933600",
        "meta_mean_motion": 1.86232151,
        "meta_eccentricity": 0.00059947,
        "meta_inclination": 54.1037,
        "meta_ra_of_asc_node": 306.2155,
        "meta_arg_of_pericenter": 24.2976,
        "meta_mean_anomaly": 335.7178,
        "meta_ephemeris_type": 0,
        "meta_classification_type": "U",
        "meta_norad_cat_id": 44793,
        "meta_element_set_no": 999,
        "meta_rev_at_epoch": 4126,
        "meta_bstar": 0,
        "meta_mean_motion_dot": -8.9e-07,
        "meta_mean_motion_ddot": 0,
        "tle_line1": "1 44793U 19078A   25351.59164275 -.00000089  00000+0  00000+0 0  9993",
        "tle_line2": "2 44793  54.1037 306.2155 0005994  24.2976 335.7178  1.86232151 41264"
      },
      "geometry": {
        "type": "Point",
        "coordinates": [
          -16.076250421992754,
          40.23487780820932
        ]
      }
    },
    {
      "type": "Feature",
      "properties": {
        "norad_id": 44794,
        "name": "BEIDOU-3 M21 (C43)",
        "group": "beidou",
        "lat": -31.08467834230585,
        "lon": -79.75801439286579,
        "alt_km": 21525.140940870504,
        "timestamp": "2025-12-18T04:58:34.841805+00:00",
        "meta_object_name": "BEIDOU-3 M21 (C43)",
        "meta_object_id": "2019-078B",
        "meta_epoch": "2025-12-16T15:43:55.727904",
        "meta_mean_motion": 1.86227668,
        "meta_eccentricity": 0.00041169,
        "meta_inclination": 54.078,
        "meta_ra_of_asc_node": 306.2132,
        "meta_arg_of_pericenter": 11.942,
        "meta_mean_anomaly": 348.0544,
        "meta_ephemeris_type": 0,
        "meta_classification_type": "U",
        "meta_norad_cat_id": 44794,
        "meta_element_set_no": 999,
        "meta_rev_at_epoch": 4125,
        "meta_bstar": 0,
        "meta_mean_motion_dot": -9.5e-07,
        "meta_mean_motion_ddot": 0,
        "tle_line1": "1 44794U 19078B   25350.65550611 -.00000095  00000+0  00000+0 0  9990",
        "tle_line2": "2 44794  54.0780 306.2132 0004116  11.9420 348.0544  1.86227668 41256"
      },
      "geometry": {
        "type": "Point",
        "coordinates": [
          -79.75801439286579,
          -31.08467834230585
        ]
      }
    },
    {
      "type": "Feature",
      "properties": {
        "norad_id": 44864,
        "name": "BEIDOU-3 M19 (C41)",
        "group": "beidou",
        "lat": 19.74216144510813,
        "lon": -124.98972742404982,
        "alt_km": 21557.466148388958,
        "timestamp": "2025-12-18T04:58:34.841816+00:00",
        "meta_object_name": "BEIDOU-3 M19 (C41)",
        "meta_object_id": "2019-090A",
        "meta_epoch": "2025-12-16T21:16:08.319360",
        "meta_mean_motion": 1.86231655,
        "meta_eccentricity": 0.00181701,
        "meta_inclination": 56.3969,
        "meta_ra_of_asc_node": 68.8236,
        "meta_arg_of_pericenter": 285.0658,
        "meta_mean_anomaly": 65.3992,
        "meta_ephemeris_type": 0,
        "meta_classification_type": "U",
        "meta_norad_cat_id": 44864,
        "meta_element_set_no": 999,
        "meta_rev_at_epoch": 4083,
        "meta_bstar": 0,
        "meta_mean_motion_dot": -7.7e-07,
        "meta_mean_motion_ddot": 0,
        "tle_line1": "1 44864U 19090A   25350.88620740 -.00000077  00000+0  00000+0 0  9998",
        "tle_line2": "2 44864  56.3969  68.8236 0018170 285.0658  65.3992  1.86231655 40836"
      },
      "geometry": {
        "type": "Point",
        "coordinates": [
          -124.98972742404982,
          19.74216144510813
        ]
      }
    },
    {
      "type": "Feature",
      "properties": {
        "norad_id": 44865,
        "name": "BEIDOU-3 M20 (C42)",
        "group": "beidou",
        "lat": -49.4110023938646,
        "lon": -60.389450404364794,
        "alt_km": 21507.588160532596,
        "timestamp": "2025-12-18T04:58:34.841828+00:00",
        "meta_object_name": "BEIDOU-3 M20 (C42)",
        "meta_object_id": "2019-090B",
        "meta_epoch": "2025-12-14T14:16:43.218624",
        "meta_mean_motion": 1.86231589,
        "meta_eccentricity": 0.00151163,
        "meta_inclination": 56.3967,
        "meta_ra_of_asc_node": 68.9336,
        "meta_arg_of_pericenter": 297.6834,
        "meta_mean_anomaly": 46.2212,
        "meta_ephemeris_type": 0,
        "meta_classification_type": "U",
        "meta_norad_cat_id": 44865,
        "meta_element_set_no": 999,
        "meta_rev_at_epoch": 4077,
        "meta_bstar": 0,
        "meta_mean_motion_dot": -8.3e-07,
        "meta_mean_motion_ddot": 0,
        "tle_line1": "1 44865U 19090B   25348.59494466 -.00000083  00000+0  00000+0 0  9995",
        "tle_line2": "2 44865  56.3967  68.9336 0015116 297.6834  46.2212  1.86231589 40771"
      },
      "geometry": {
        "type": "Point",
        "coordinates": [
          -60.389450404364794,
          -49.4110023938646
        ]
      }
    },
    {
      "type": "Feature",
      "properties": {
        "norad_id": 45344,
        "name": "BEIDOU-3 G2 (C60)",
        "group": "beidou",
        "lat": -0.7879984614376505,
        "lon": -118.29617527128732,
        "alt_km": 35776.683278445926,
        "timestamp": "2025-12-18T04:58:34.841839+00:00",
        "meta_object_name": "BEIDOU-3 G2 (C60)",
        "meta_object_id": "2020-017A",
        "meta_epoch": "2025-12-17T19:56:27.389184",
        "meta_mean_motion": 1.00276574,
        "meta_eccentricity": 0.0002286,
        "meta_inclination": 2.5064,
        "meta_ra_of_asc_node": 43.9767,
        "meta_arg_of_pericenter": 230.3031,
        "meta_mean_anomaly": 191.5542,
        "meta_ephemeris_type": 0,
        "meta_classification_type": "U",
        "meta_norad_cat_id": 45344,
        "meta_element_set_no": 999,
        "meta_rev_at_epoch": 2144,
        "meta_bstar": 0,
        "meta_mean_motion_dot": -1.19e-06,
        "meta_mean_motion_ddot": 0,
        "tle_line1": "1 45344U 20017A   25351.83087256 -.00000119  00000+0  00000+0 0  9995",
        "tle_line2": "2 45344   2.5064  43.9767 0002286 230.3031 191.5542  1.00276574 21445"
      },
      "geometry": {
        "type": "Point",
        "coordinates": [
          -118.29617527128732,
          -0.7879984614376505
        ]
      }
    },
    {
      "type": "Feature",
      "properties": {
        "norad_id": 45807,
        "name": "BEIDOU-3 G3 (C61)",
        "group": "beidou",
        "lat": -0.8910512618156438,
        "lon": -87.79293215885045,
        "alt_km": 35792.61814472068,
        "timestamp": "2025-12-18T04:58:34.841850+00:00",
        "meta_object_name": "BEIDOU-3 G3 (C61)",
        "meta_object_id": "2020-040A",
        "meta_epoch": "2025-12-17T20:42:00.687744",
        "meta_mean_motion": 1.00271811,
        "meta_eccentricity": 0.0006402,
        "meta_inclination": 2.0032,
        "meta_ra_of_asc_node": 66.6314,
        "meta_arg_of_pericenter": 309.0943,
        "meta_mean_anomaly": 132.0925,
        "meta_ephemeris_type": 0,
        "meta_classification_type": "U",
        "meta_norad_cat_id": 45807,
        "meta_element_set_no": 999,
        "meta_rev_at_epoch": 2025,
        "meta_bstar": 0,
        "meta_mean_motion_dot": -3.31e-06,
        "meta_mean_motion_ddot": 0,
        "tle_line1": "1 45807U 20040A   25351.86250796 -.00000331  00000+0  00000+0 0  9995",
        "tle_line2": "2 45807   2.0032  66.6314 0006402 309.0943 132.0925  1.00271811 20251"
      },
      "geometry": {
        "type": "Point",
        "coordinates": [
          -87.79293215885045,
          -0.8910512618156438
        ]
      }
    }
  ]
}